{
  "type": "FeatureCollection",
  "features": [
    {
      "type": "Feature",
      "properties": {
        "norad_id": 66464,
        "name": "STARLINK-35435",
        "group": "last-30-days",
        "lat": -41.42623506054898,
        "lon": 10.929447490703389,
        "alt_km": 446.01405829296255,
        "timestamp": "2025-12-10T20:49:51.343980+00:00",
        "meta_object_name": "STARLINK-35435",
        "meta_object_id": "2025-262J",
        "meta_epoch": "2025-12-10T14:00:03.000384",
        "meta_mean_motion": 15.40649786,
        "meta_eccentricity": 0.00020195,
        "meta_inclination": 43.0001,
        "meta_ra_of_asc_node": 83.8253,
        "meta_arg_of_pericenter": 293.1453,
        "meta_mean_anomaly": 210.5054,
        "meta_ephemeris_type": 0,
        "meta_classification_type": "U",
        "meta_norad_cat_id": 66464,
        "meta_element_set_no": 999,
        "meta_rev_at_epoch": 529,
        "meta_bstar": 0.0020606641,
        "meta_mean_motion_dot": 0.00086615,
        "meta_mean_motion_ddot": 0,
        "tle_line1": "1 66464U 25262J   25344.58336806  .00086615  00000+0  20607-2 0  9992",
        "tle_line2": "2 66464  43.0001  83.8253 0002019 293.1453 210.5054 15.40649786  5297"
      },
      "geometry": {
        "type": "Point",
        "coordinates": [
          10.929447490703389,
          -41.42623506054898
        ]
      }
    },
    {
      "type": "Feature",
      "properties": {
        "norad_id": 66465,
        "name": "STARLINK-35448",
        "group": "last-30-days",
        "lat": -25.88321026251537,
        "lon": 50.71922421685114,
        "alt_km": 439.92194571304117,
        "timestamp": "2025-12-10T20:49:51.343990+00:00",
        "meta_object_name": "STARLINK-35448",
        "meta_object_id": "2025-262K",
        "meta_epoch": "2025-12-10T14:00:03.000384",
        "meta_mean_motion": 15.43509069,
        "meta_eccentricity": 0.00017553,
        "meta_inclination": 43.0006,
        "meta_ra_of_asc_node": 83.7435,
        "meta_arg_of_pericenter": 287.02,
        "meta_mean_anomaly": 250.4993,
        "meta_ephemeris_type": 0,
        "meta_classification_type": "U",
        "meta_norad_cat_id": 66465,
        "meta_element_set_no": 999,
        "meta_rev_at_epoch": 529,
        "meta_bstar": -0.038563039,
        "meta_mean_motion_dot": -0.01590084,
        "meta_mean_motion_ddot": 0,
        "tle_line1": "1 66465U 25262K   25344.58336806 -.01590084  00000+0 -38563-1 0  9995",
        "tle_line2": "2 66465  43.0006  83.7435 0001755 287.0200 250.4993 15.43509069  5299"
      },
      "geometry": {
        "type": "Point",
        "coordinates": [
          50.71922421685114,
          -25.88321026251537
        ]
      }
    },
    {
      "type": "Feature",
      "properties": {
        "norad_id": 66466,
        "name": "STARLINK-35388",
        "group": "last-30-days",
        "lat": -19.87088768383742,
        "lon": 59.250571830878144,
        "alt_km": 436.3824346507445,
        "timestamp": "2025-12-10T20:49:51.344001+00:00",
        "meta_object_name": "STARLINK-35388",
        "meta_object_id": "2025-262L",
        "meta_epoch": "2025-12-10T14:00:03.000384",
        "meta_mean_motion": 15.4498931,
        "meta_eccentricity": 0.00011359,
        "meta_inclination": 43.0003,
        "meta_ra_of_asc_node": 83.7206,
        "meta_arg_of_pericenter": 285.7119,
        "meta_mean_anomaly": 260.3565,
        "meta_ephemeris_type": 0,
        "meta_classification_type": "U",
        "meta_norad_cat_id": 66466,
        "meta_element_set_no": 999,
        "meta_rev_at_epoch": 529,
        "meta_bstar": -0.047725839,
        "meta_mean_motion_dot": -0.02048083,
        "meta_mean_motion_ddot": 0,
        "tle_line1": "1 66466U 25262L   25344.58336806 -.02048083  00000+0 -47726-1 0  9995",
        "tle_line2": "2 66466  43.0003  83.7206 0001135 285.7119 260.3565 15.44989310  5296"
      },
      "geometry": {
        "type": "Point",
        "coordinates": [
          59.250571830878144,
          -19.87088768383742
        ]
      }
    },
    {
      "type": "Feature",
      "properties": {
        "norad_id": 66467,
        "name": "STARLINK-35682",
        "group": "last-30-days",
        "lat": -32.066898736656235,
        "lon": 39.88004169630552,
        "alt_km": 444.676585709547,
        "timestamp": "2025-12-10T20:49:51.344011+00:00",
        "meta_object_name": "STARLINK-35682",
        "meta_object_id": "2025-262M",
        "meta_epoch": "2025-12-10T14:00:03.000384",
        "meta_mean_motion": 15.42402468,
        "meta_eccentricity": 0.00012946,
        "meta_inclination": 43.0006,
        "meta_ra_of_asc_node": 83.7674,
        "meta_arg_of_pericenter": 293.7529,
        "meta_mean_anomaly": 233.7401,
        "meta_ephemeris_type": 0,
        "meta_classification_type": "U",
        "meta_norad_cat_id": 66467,
        "meta_element_set_no": 999,
        "meta_rev_at_epoch": 529,
        "meta_bstar": -0.053749664,
        "meta_mean_motion_dot": -0.02104033,
        "meta_mean_motion_ddot": 0,
        "tle_line1": "1 66467U 25262M   25344.58336806 -.02104033  00000+0 -53750-1 0  9998",
        "tle_line2": "2 66467  43.0006  83.7674 0001294 293.7529 233.7401 15.42402468  5294"
      },
      "geometry": {
        "type": "Point",
        "coordinates": [
          39.88004169630552,
          -32.066898736656235
        ]
      }
    },
    {
      "type": "Feature",
      "properties": {
        "norad_id": 66468,
        "name": "STARLINK-35331",
        "group": "last-30-days",
        "lat": -7.172830154355843,
        "lon": 74.2602216124035,
        "alt_km": 415.9179643044163,
        "timestamp": "2025-12-10T20:49:51.344023+00:00",
        "meta_object_name": "STARLINK-35331",
        "meta_object_id": "2025-262N",
        "meta_epoch": "2025-12-10T13:08:42.779904",
        "meta_mean_motion": 15.50262791,
        "meta_eccentricity": 0.00120892,
        "meta_inclination": 43.0007,
        "meta_ra_of_asc_node": 83.8945,
        "meta_arg_of_pericenter": 259.6027,
        "meta_mean_anomaly": 100.347,
        "meta_ephemeris_type": 0,
        "meta_classification_type": "U",
        "meta_norad_cat_id": 66468,
        "meta_element_set_no": 999,
        "meta_rev_at_epoch": 522,
        "meta_bstar": 0.003351729,
        "meta_mean_motion_dot": 0.00199611,
        "meta_mean_motion_ddot": 0,
        "tle_line1": "1 66468U 25262N   25344.54771736  .00199611  00000+0  33517-2 0  9992",
        "tle_line2": "2 66468  43.0007  83.8945 0012089 259.6027 100.3470 15.50262791  5226"
      },
      "geometry": {
        "type": "Point",
        "coordinates": [
          74.2602216124035,
          -7.172830154355843
        ]
      }
    },
    {
      "type": "Feature",
      "properties": {
        "norad_id": 66469,
        "name": "STARLINK-35451",
        "group": "last-30-days",
        "lat": -2.533307492823887,
        "lon": 79.28226759742371,
        "alt_km": 415.01442950888304,
        "timestamp": "2025-12-10T20:49:51.344034+00:00",
        "meta_object_name": "STARLINK-35451",
        "meta_object_id": "2025-262P",
        "meta_epoch": "2025-12-10T14:39:44.461728",
        "meta_mean_motion": 15.50413061,
        "meta_eccentricity": 0.00014486,
        "meta_inclination": 43.0008,
        "meta_ra_of_asc_node": 83.5069,
        "meta_arg_of_pericenter": 307.9056,
        "meta_mean_anomaly": 52.1673,
        "meta_ephemeris_type": 0,
        "meta_classification_type": "U",
        "meta_norad_cat_id": 66469,
        "meta_element_set_no": 999,
        "meta_rev_at_epoch": 523,
        "meta_bstar": -0.00084898848,
        "meta_mean_motion_dot": -0.00049541,
        "meta_mean_motion_ddot": 0,
        "tle_line1": "1 66469U 25262P   25344.61093127 -.00049541  00000+0 -84899-3 0  9990",
        "tle_line2": "2 66469  43.0008  83.5069 0001448 307.9056  52.1673 15.50413061  5236"
      },
      "geometry": {
        "type": "Point",
        "coordinates": [
          79.28226759742371,
          -2.533307492823887
        ]
      }
    },
    {
      "type": "Feature",
      "properties": {
        "norad_id": 66470,
        "name": "STARLINK-35655",
        "group": "last-30-days",
        "lat": -9.688539584089591,
        "lon": 71.47689347806993,
        "alt_km": 427.7134343632106,
        "timestamp": "2025-12-10T20:49:51.344050+00:00",
        "meta_object_name": "STARLINK-35655",
        "meta_object_id": "2025-262Q",
        "meta_epoch": "2025-12-10T14:00:03.000384",
        "meta_mean_motion": 15.47658231,
        "meta_eccentricity": 0.00011645,
        "meta_inclination": 43.0003,
        "meta_ra_of_asc_node": 83.6898,
        "meta_arg_of_pericenter": 286.565,
        "meta_mean_anomaly": 272.3845,
        "meta_ephemeris_type": 0,
        "meta_classification_type": "U",
        "meta_norad_cat_id": 66470,
        "meta_element_set_no": 999,
        "meta_rev_at_epoch": 529,
        "meta_bstar": -0.043785021,
        "meta_mean_motion_dot": -0.02060612,
        "meta_mean_motion_ddot": 0,
        "tle_line1": "1 66470U 25262Q   25344.58336806 -.02060612  00000+0 -43785-1 0  9993",
        "tle_line2": "2 66470  43.0003  83.6898 0001164 286.5650 272.3845 15.47658231  5290"
      },
      "geometry": {
        "type": "Point",
        "coordinates": [
          71.47689347806993,
          -9.688539584089591
        ]
      }
    }
  ]
}